{"type": "FeatureCollection", "features": [ {"type": "Feature", "properties": {"norad_id": 66333, "name": "STARLINK-35400", "group": "last-30-days", "lat": 42.90634666631303, "lon": 129.97859063792262, "alt_km": 408.97124000603344, "timestamp": "2025-12-02T13:52:16.063480+00:00", "meta": {"OBJECT_NAME": "STARLINK-35400", "OBJECT_ID": "2025-253Q", "EPOCH": "2025-12-02T05:46:06.662496", "MEAN_MOTION": 15.50632789, "ECCENTRICITY": 0.00016061, "INCLINATION": 43.0007, "RA_OF_ASC_NODE": 46.0732, "ARG_OF_PERICENTER": 261.2181, "MEAN_ANOMALY": 98.8498, "EPHEMERIS_TYPE": 0, "CLASSIFICATION_TYPE": "U", "NORAD_CAT_ID": 66333, "ELEMENT_SET_NO": 999, "REV_AT_EPOCH": 530, "BSTAR": 0.0015089073, "MEAN_MOTION_DOT": 0.00089367, "MEAN_MOTION_DDOT": 0}, "tle": {"line1": "1 66333U 25253Q   25336.24035489  .00089367  00000+0  15089-2 0  9999", "line2": "2 66333  43.0007  46.0732 0001606 261.2181  98.8498 15.50632789  5303"}}, "geometry": {"type": "Point", "coordinates": [129.97859063792262, 42.90634666631303]}}, {"type": "Feature", "properties": {"norad_id": 66334, "name": "STARLINK-35407", "group": "last-30-days", "lat": 42.17159572637483, "lon": 120.54734393003096, "alt_km": 409.1034432497672, "timestamp": "2025-12-02T13:52:16.063490+00:00", "meta": {"OBJECT_NAME": "STARLINK-35407", "OBJECT_ID": "2025-253R", "EPOCH": "2025-12-02T05:47:54.705696", "MEAN_MOTION": 15.50606846, "ECCENTRICITY": 0.00018201, "INCLINATION": 43.0002, "RA_OF_ASC_NODE": 46.0853, "ARG_OF_PERICENTER": 277.7851, "MEAN_ANOMALY": 82.2803, "EPHEMERIS_TYPE": 0, "CLASSIFICATION_TYPE": "U", "NORAD_CAT_ID": 66334, "ELEMENT_SET_NO": 999, "REV_AT_EPOCH": 530, "BSTAR": 0.0026112392, "MEAN_MOTION_DOT": 0.00156096, "MEAN_MOTION_DDOT": 0}, "tle": {"line1": "1 66334U 25253R   25336.24160539  .00156096  00000+0  26112-2 0  9998", "line2": "2 66334  43.0002  46.0853 0001820 277.7851  82.2803 15.50606846  5309"}}, "geometry": {"type": "Point", "coordinates": [120.54734393003096, 42.17159572637483]}}, {"type": "Feature", "properties": {"norad_id": 66335, "name": "STARLINK-35417", "group": "last-30-days", "lat": -16.14614912704245, "lon": 26.269152784056306, "alt_km": 445.58930617898386, "timestamp": "2025-12-02T13:52:16.063501+00:00", "meta": {"OBJECT_NAME": "STARLINK-35417", "OBJECT_ID": "2025-253S", "EPOCH": "2025-12-02T06:00:02.999808", "MEAN_MOTION": 15.40649977, "ECCENTRICITY": 0.00013216, "INCLINATION": 43.0009, "RA_OF_ASC_NODE": 46.2588, "ARG_OF_PERICENTER": 251.0876, "MEAN_ANOMALY": 63.9197, "EPHEMERIS_TYPE": 0, "CLASSIFICATION_TYPE": "U", "NORAD_CAT_ID": 66335, "ELEMENT_SET_NO": 999, "REV_AT_EPOCH": 524, "BSTAR": 0.0011339018, "MEAN_MOTION_DOT": 0.00047277, "MEAN_MOTION_DDOT": 0}, "tle": {"line1": "1 66335U 25253S   25336.25003472  .00047277  00000+0  11339-2 0  9997", "line2": "2 66335  43.0009  46.2588 0001321 251.0876  63.9197 15.40649977  5248"}}, "geometry": {"type": "Point", "coordinates": [26.269152784056306, -16.14614912704245]}}, {"type": "Feature", "properties": {"norad_id": 66336, "name": "STARLINK-35404", "group": "last-30-days", "lat": 42.973078885465476, "lon": 135.2991047277429, "alt_km": 408.7364134849977, "timestamp": "2025-12-02T13:52:16.063511+00:00", "meta": {"OBJECT_NAME": "STARLINK-35404", "OBJECT_ID": "2025-253T", "EPOCH": "2025-12-02T05:45:07.240032", "MEAN_MOTION": 15.50663874, "ECCENTRICITY": 0.00015748, "INCLINATION": 42.9999, "RA_OF_ASC_NODE": 46.0686, "ARG_OF_PERICENTER": 253.9948, "MEAN_ANOMALY": 106.0739, "EPHEMERIS_TYPE": 0, "CLASSIFICATION_TYPE": "U", "NORAD_CAT_ID": 66336, "ELEMENT_SET_NO": 999, "REV_AT_EPOCH": 530, "BSTAR": 0.0021833927, "MEAN_MOTION_DOT": 0.00130295, "MEAN_MOTION_DDOT": 0}, "tle": {"line1": "1 66336U 25253T   25336.23966713  .00130295  00000+0  21834-2 0  9996", "line2": "2 66336  42.9999  46.0686 0001574 253.9948 106.0739 15.50663874  5304"}}, "geometry": {"type": "Point", "coordinates": [135.2991047277429, 42.973078885465476]}}, {"type": "Feature", "properties": {"norad_id": 66337, "name": "STARLINK-34783", "group": "last-30-days", "lat": 0.5074128685772353, "lon": 44.85280307223845, "alt_km": 443.80912928385624, "timestamp": "2025-12-02T13:52:16.063522+00:00", "meta": {"OBJECT_NAME": "STARLINK-34783", "OBJECT_ID": "2025-253U", "EPOCH": "2025-12-02T06:00:02.999808", "MEAN_MOTION": 15.40677197, "ECCENTRICITY": 0.00014754, "INCLINATION": 43.0009, "RA_OF_ASC_NODE": 46.1984, "ARG_OF_PERICENTER": 264.0394, "MEAN_ANOMALY": 75.7568, "EPHEMERIS_TYPE": 0, "CLASSIFICATION_TYPE": "U", "NORAD_CAT_ID": 66337, "ELEMENT_SET_NO": 999, "REV_AT_EPOCH": 529, "BSTAR": 0.0011027135, "MEAN_MOTION_DOT": 0.00046003, "MEAN_MOTION_DDOT": 0}, "tle": {"line1": "1 66337U 25253U   25336.25003472  .00046003  00000+0  11027-2 0  9999", "line2": "2 66337  43.0009  46.1984 0001475 264.0394  75.7568 15.40677197  5291"}}, "geometry": {"type": "Point", "coordinates": [44.85280307223845, 0.5074128685772353]}}, {"type": "Feature", "properties": {"norad_id": 66338, "name": "STARLINK-35477", "group": "last-30-days", "lat": -23.939432400730485, "lon": 15.947912546739605, "alt_km": 446.366541039748, "timestamp": "2025-12-02T13:52:16.063536+00:00", "meta": {"OBJECT_NAME": "STARLINK-35477", "OBJECT_ID": "2025-253V", "EPOCH": "2025-12-02T06:00:02.999808", "MEAN_MOTION": 15.40655506, "ECCENTRICITY": 6.25e-05, "INCLINATION": 43.0006, "RA_OF_ASC_NODE": 46.2898, "ARG_OF_PERICENTER": 229.6289, "MEAN_ANOMALY": 72.9166, "EPHEMERIS_TYPE": 0, "CLASSIFICATION_TYPE": "U", "NORAD_CAT_ID": 66338, "ELEMENT_SET_NO": 999, "REV_AT_EPOCH": 534, "BSTAR": 0.0012089172, "MEAN_MOTION_DOT": 0.00050455, "MEAN_MOTION_DDOT": 0}, "tle": {"line1": "1 66338U 25253V   25336.25003472  .00050455  00000+0  12089-2 0  9995", "line2": "2 66338  43.0006  46.2898 0000625 229.6289  72.9166 15.40655506  5349"}}, "geometry": {"type": "Point", "coordinates": [15.947912546739605, -23.939432400730485]}}, {"type": "Feature", "properties": {"norad_id": 66339, "name": "STARLINK-35443", "group": "last-30-days", "lat": 42.24829471900336, "lon": 146.98120140692183, "alt_km": 415.29960476765336, "timestamp": "2025-12-02T13:52:16.063547+00:00", "meta": {"OBJECT_NAME": "STARLINK-35443", "OBJECT_ID": "2025-253W", "EPOCH": "2025-12-02T05:42:14.846976", "MEAN_MOTION": 15.48798545, "ECCENTRICITY": 0.00012668, "INCLINATION": 43.0002, "RA_OF_ASC_NODE": 46.0511, "ARG_OF_PERICENTER": 281.1993, "MEAN_ANOMALY": 78.8724, "EPHEMERIS_TYPE": 0, "CLASSIFICATION_TYPE": "U", "NORAD_CAT_ID": 66339, "ELEMENT_SET_NO": 999, "REV_AT_EPOCH": 530, "BSTAR": -0.0082997541, "MEAN_MOTION_DOT": -0.00432994, "MEAN_MOTION_DDOT": 0}, "tle": {"line1": "1 66339U 25253W   25336.23767184 -.00432994  00000+0 -82998-2 0  9991", "line2": "2 66339  43.0002  46.0511 0001266 281.1993  78.8724 15.48798545  5303"}}, "geometry": {"type": "Point", "coordinates": [146.98120140692183, 42.24829471900336]}}, {"type": "Feature", "properties": {"norad_id": 66340, "name": "STARLINK-35218", "group": "last-30-days", "lat": 42.91643311186784, "lon": 137.89722659061079, "alt_km": 408.8702170947763, "timestamp": "2025-12-02T13:52:16.063557+00:00", "meta": {"OBJECT_NAME": "STARLINK-35218", "OBJECT_ID": "2025-253X", "EPOCH": "2025-12-02T05:44:37.704192", "MEAN_MOTION": 15.50658934, "ECCENTRICITY": 0.00017229, "INCLINATION": 43.0002, "RA_OF_ASC_NODE": 46.0659, "ARG_OF_PERICENTER": 259.1035, "MEAN_ANOMALY": 100.9632, "EPHEMERIS_TYPE": 0, "CLASSIFICATION_TYPE": "U", "NORAD_CAT_ID": 66340, "ELEMENT_SET_NO": 999, "REV_AT_EPOCH": 530, "BSTAR": 0.0021881401, "MEAN_MOTION_DOT": 0.00130561, "MEAN_MOTION_DDOT": 0}, "tle": {"line1": "1 66340U 25253X   25336.23932528  .00130561  00000+0  21881-2 0  9996", "line2": "2 66340  43.0002  46.0659 0001722 259.1035 100.9632 15.50658934  5302"}}, "geometry": {"type": "Point", "coordinates": [137.89722659061079, 42.91643311186784]}}, {"type": "Feature", "properties": {"norad_id": 66341, "name": "STARLINK-35522", "group": "last-30-days", "lat": 42.78300213349732, "lon": 127.38895714623271, "alt_km": 408.96749611334235, "timestamp": "2025-12-02T13:52:16.063567+00:00", "meta": {"OBJECT_NAME": "STARLINK-35522", "OBJECT_ID": "2025-253Y", "EPOCH": "2025-12-02T05:46:36.246720", "MEAN_MOTION": 15.50639914, "ECCENTRICITY": 0.00015881, "INCLINATION": 43.0002, "RA_OF_ASC_NODE": 46.079, "ARG_OF_PERICENTER": 262.4563, "MEAN_ANOMALY": 97.6117, "EPHEMERIS_TYPE": 0, "CLASSIFICATION_TYPE": "U", "NORAD_CAT_ID": 66341, "ELEMENT_SET_NO": 999, "REV_AT_EPOCH": 530, "BSTAR": 0.0014365706, "MEAN_MOTION_DOT": 0.00085041, "MEAN_MOTION_DDOT": 0}, "tle": {"line1": "1 66341U 25253Y   25336.24069730  .00085041  00000+0  14366-2 0  9996", "line2": "2 66341  43.0002  46.0790 0001588 262.4563  97.6117 15.50639914  5309"}}, "geometry": {"type": "Point", "coordinates": [127.38895714623271, 42.78300213349732]}}, {"type": "Feature", "properties": {"norad_id": 66342, "name": "STARLINK-35535", "group": "last-30-days", "lat": 37.453314343212625, "lon": 99.44482247234448, "alt_km": 439.09481080433216, "timestamp": "2025-12-02T13:52:16.063578+00:00", "meta": {"OBJECT_NAME": "STARLINK-35535", "OBJECT_ID": "2025-253Z", "EPOCH": "2025-12-02T06:00:02.999808", "MEAN_MOTION": 15.42213642, "ECCENTRICITY": 0.00013429, "INCLINATION": 43.0006, "RA_OF_ASC_NODE": 46.048, "ARG_OF_PERICENTER": 251.9592, "MEAN_ANOMALY": 149.2813, "EPHEMERIS_TYPE": 0, "CLASSIFICATION_TYPE": "U", "NORAD_CAT_ID": 66342, "ELEMENT_SET_NO": 999, "REV_AT_EPOCH": 524, "BSTAR": -0.053698853, "MEAN_MOTION_DOT": -0.02090422, "MEAN_MOTION_DDOT": 0}, "tle": {"line1": "1 66342U 25253Z   25336.25003472 -.02090422  00000+0 -53699-1 0  9993", "line2": "2 66342  43.0006  46.0480 0001342 251.9592 149.2813 15.42213642  5240"}}, "geometry": {"type": "Point", "coordinates": [99.44482247234448, 37.453314343212625]}}]}